ONEWEB-0607             
1 54671U 22166AF  24354.94416480  .00000101  00000+0  21401-3 0  9996
2 54671  87.9293 352.3948 0001975  83.5366 276.5993 13.21828083 99645
ONEWEB-0608             
1 54672U 22166AG  24354.95047437  .00000123  00000+0  26560-3 0  9995
2 54672  87.9275 352.4139 0002309  85.2040 274.9358 13.21828063 99655
ONEWEB-0610             
1 54673U 22166AH  24354.70448381  .00000068  00000+0  13261-3 0  9994
2 54673  87.9293 352.4607 0002308  86.9029 273.2369 13.21826269 99526
ONEWEB-0611             
1 54674U 22166AJ  24354.69815256  .00000022  00000+0  22924-4 0  9999
2 54674  87.9293 352.4598 0001510  90.0829 270.0478 13.21823425 99510
ONEWEB-0612             
1 54675U 22166AK  24354.93788142  .00000095  00000+0  19956-3 0  9990
2 54675  87.9292 352.3922 0002013  85.8336 274.3028 13.21825947 99535
ONEWEB-0615             
1 54676U 22166AL  24354.99463321 -.00000057  00000+0 -17001-3 0  9995
2 54676  87.9291 352.4064 0001910  81.2628 278.8722 13.21827500100026
ONEWEB-0655             
1 54677U 22166AM  24355.04351485 -.00000446  00000+0 -11121-2 0  9998
2 54677  87.9293 352.4000 0001892  77.0590 283.0755 13.21824485100022
ONEWEB-0659             
1 54678U 22166AN  24355.06086927 -.00000046  00000+0 -14341-3 0  9991
2 54678  87.9292 352.4005 0001800  94.2284 265.9056 13.21823517100115
